TIANMU-1 07             
1 57399U 23101A   26065.57454230  .00008352  00000+0  29795-3 0  9991
2 57399  97.2728 118.5929 0004609 142.4105 217.7458 15.29118809145964
STARLINK-32487          
1 61963U 24210E   26068.32821533  .00037475  00000+0  13636-2 0  9999
2 61963  42.9977 181.9498 0001179 241.9398 118.1335 15.27600196 74852
